APRIZESAT 2             
1 28366U 04025A   20118.66443357  .00000007  00000-0  15802-4 0  9993
2 28366  98.2709  11.7344 0108063 158.9529 201.6156 14.36701376829704
SAUDICOMSAT 1           
1 28369U 04025D   20118.73732053  .00000053  00000-0  24088-4 0  9995
2 28369  98.3343  69.8233 0034603  49.9587 310.4635 14.52546141838508
SAUDICOMSAT 2           
1 28370U 04025E   20118.80455255  .00000055  00000-0  27277-4 0  9996
2 28370  98.4281  66.7284 0057170 208.5926 151.2128 14.47478319835698
APRIZESAT 1             
1 28372U 04025G   20118.83758617  .00000039  00000-0  21795-4 0  9990
2 28372  98.3878  67.9811 0047289 133.0317 227.4853 14.49623558837003
NANOSAT-1               
1 28493U 04049B   20118.75743850  .00000067  00000-0  18147-4 0  9992
2 28493  98.1173 208.4495 0003148 264.9004  95.1844 14.73569730824886
SAUDICOMSAT 7           
1 31119U 07012C   20118.79684709  .00000063  00000-0  21843-4 0  9998
2 31119  98.0925  65.7386 0060550  18.1848 342.1500 14.61780565694659
SAUDICOMSAT 6           
1 31121U 07012E   20118.81600600  .00000052  00000-0  20816-4 0  9999
2 31121  98.1455  60.5156 0077897 102.7784 258.2135 14.58579806693144
SAUDICOMSAT 5           
1 31124U 07012H   20118.81632399  .00000055  00000-0  19775-4 0  9997
2 31124  98.0572  68.3950 0051051 333.7328  26.1286 14.63482922695406
SAUDICOMSAT 3           
1 31125U 07012J   20118.86557475  .00000079  00000-0  23449-4 0  9993
2 31125  98.0192  71.2049 0041961 288.8061  70.8593 14.65240349696191
SAUDICOMSAT 4           
1 31127U 07012L   20118.82970602  .00000056  00000-0  21087-4 0  9993
2 31127  98.1197  63.5876 0069241  58.1376 302.6539 14.60294334693943
APRIZESAT 4             
1 35684U 09041D   20118.91406725  .00000051  00000-0  14600-4 0  9997
2 35684  98.2710  96.2319 0046655 336.7888  23.1215 14.79268112579662
APRIZESAT 3             
1 35686U 09041F   20118.87619302  .00000068  00000-0  14011-4 0  9995
2 35686  98.1877 174.2559 0072194 212.2105 147.4691 14.87379871582562
AISSAT 1                
1 36797U 10035C   20118.64100344  .00000151  00000-0  23721-4 0  9991
2 36797  98.1650 266.0860 0011086 182.2362 177.8804 14.86296503530446
S-NET D                 
1 43186U 18014G   20118.77560584  .00000191  00000-0  21738-4 0  9996
2 43186  97.6974  27.4298 0012249  40.8431 319.3707 14.96792277122117
S-NET B                 
1 43187U 18014H   20118.77542522  .00000198  00000-0  22366-4 0  9994
2 43187  97.6972  27.4095 0012241  40.7757 319.4379 14.96792180122112
S-NET A                 
1 43188U 18014J   20118.70843693  .00000212  00000-0  23571-4 0  9997
2 43188  97.6974  27.3714 0012248  41.0847 319.1295 14.96791806122100
S-NET C                 
1 43189U 18014K   20118.70883722  .00000192  00000-0  21844-4 0  9993
2 43189  97.6972  27.3397 0012249  40.9369 319.2770 14.96791322120654
